start=new Date('2021-09-06T00:00:00.000Z').valueOf();
sats=[{"RA_OF_ASC_NODE":"35.7924","MEAN_MOTION":"15.06408084","LAUNCH_DATE":"2021-03-04","REF_FRAME":"TEME","BSTAR":"0.00007465300000","PERIAPSIS":"546.081","MEAN_ELEMENT_THEORY":"SGP4","CENTER_NAME":"EARTH","OBJECT_TYPE":"PAYLOAD","MEAN_MOTION_DDOT":"0.0000000000000","INCLINATION":"53.0564","SITE":"AFETR","SEMIMAJOR_AXIS":"6925.324","ELEMENT_SET_NO":"999","REV_AT_EPOCH":"2971","OBJECT_NAME":"STARLINK-2183","RCS_SIZE":"LARGE","EPOCH":"2021-09-05T16:30:38.033280","EPHEMERIS_TYPE":"0","PERIOD":"95.592","DECAY_DATE":null,"NORAD_CAT_ID":"47765","TLE_LINE2":"2 47765  53.0564  35.7924 0001600 117.7745 242.3406 15.06408084 29719","GP_ID":"184166108","TLE_LINE1":"1 47765U 21017AV  21248.68794020  .00000831  00000-0  74653-4 0  9994","MEAN_MOTION_DOT":"0.00000831","TIME_SYSTEM":"UTC","MEAN_ANOMALY":"242.3406","OBJECT_ID":"2021-017AV","APOAPSIS":"548.297","COUNTRY_CODE":"US","ARG_OF_PERICENTER":"117.7745","FILE":"3109348","ECCENTRICITY":"0.00016000","CLASSIFICATION_TYPE":"U"},{"APOAPSIS":"548.427","COUNTRY_CODE":"US","ARG_OF_PERICENTER":"97.5922","FILE":"3109348","ECCENTRICITY":"0.00017970","CLASSIFICATION_TYPE":"U","MEAN_MOTION_DOT":"0.00002976","TIME_SYSTEM":"UTC","MEAN_ANOMALY":"262.5271","OBJECT_ID":"2021-017AW","DECAY_DATE":null,"GP_ID":"184166355","TLE_LINE2":"2 47766  53.0552  55.5766 0001797  97.5922 262.5271 15.06409974 29421","NORAD_CAT_ID":"47766","TLE_LINE1":"1 47766U 21017AW  21248.73771348  .00002976  00000-0  21853-3 0  9994","RCS_SIZE":"LARGE","EPOCH":"2021-09-05T17:42:18.444672","EPHEMERIS_TYPE":"0","PERIOD":"95.592","SITE":"AFETR","SEMIMAJOR_AXIS":"6925.318","ELEMENT_SET_NO":"999","REV_AT_EPOCH":"2942","OBJECT_NAME":"STARLINK-2184","CENTER_NAME":"EARTH","OBJECT_TYPE":"PAYLOAD","MEAN_MOTION_DDOT":"0.0000000000000","INCLINATION":"53.0552","BSTAR":"0.00021853000000","PERIAPSIS":"545.939","MEAN_ELEMENT_THEORY":"SGP4","MEAN_MOTION":"15.06409974","RA_OF_ASC_NODE":"55.5766","LAUNCH_DATE":"2021-03-04","REF_FRAME":"TEME"},{"OBJECT_NAME":"STARLINK-2185","REV_AT_EPOCH":"2969","ELEMENT_SET_NO":"999","SEMIMAJOR_AXIS":"6925.366","SITE":"AFETR","INCLINATION":"53.0564","MEAN_MOTION_DDOT":"0.0000000000000","OBJECT_TYPE":"PAYLOAD","CENTER_NAME":"EARTH","MEAN_ELEMENT_THEORY":"SGP4","PERIAPSIS":"546.017","BSTAR":"0.00010995000000","REF_FRAME":"TEME","LAUNCH_DATE":"2021-03-04","RA_OF_ASC_NODE":"40.7611","MEAN_MOTION":"15.06394163","CLASSIFICATION_TYPE":"U","ECCENTRICITY":"0.00017540","FILE":"3109348","ARG_OF_PERICENTER":"101.0999","COUNTRY_CODE":"US","APOAPSIS":"548.446","OBJECT_ID":"2021-017AX","MEAN_ANOMALY":"259.0187","TIME_SYSTEM":"UTC","MEAN_MOTION_DOT":"0.00001356","TLE_LINE1":"1 47767U 21017AX  21248.69669978  .00001356  00000-0  10995-3 0  9991","GP_ID":"184165607","TLE_LINE2":"2 47767  53.0564  40.7611 0001754 101.0999 259.0187 15.06394163 29697","NORAD_CAT_ID":"47767","DECAY_DATE":null,"PERIOD":"95.593","EPHEMERIS_TYPE":"0","EPOCH":"2021-09-05T16:43:14.860992","RCS_SIZE":"LARGE"},{"RCS_SIZE":"LARGE","EPOCH":"2021-09-05T18:23:23.160192","EPHEMERIS_TYPE":"0","PERIOD":"95.592","DECAY_DATE":null,"NORAD_CAT_ID":"47768","TLE_LINE2":"2 47768  53.0567  55.4603 0001685  92.4866 267.6315 15.06409365 29468","GP_ID":"184165857","TLE_LINE1":"1 47768U 21017AY  21248.76624028 -.00000555  00000-0 -18351-4 0  9994","MEAN_MOTION_DOT":"-0.00000555","TIME_SYSTEM":"UTC","MEAN_ANOMALY":"267.6315","OBJECT_ID":"2021-017AY","APOAPSIS":"548.352","COUNTRY_CODE":"US","ARG_OF_PERICENTER":"92.4866","FILE":"3109348","ECCENTRICITY":"0.00016850","CLASSIFICATION_TYPE":"U","RA_OF_ASC_NODE":"55.4603","MEAN_MOTION":"15.06409365","LAUNCH_DATE":"2021-03-04","REF_FRAME":"TEME","BSTAR":"-0.00001835100000","PERIAPSIS":"546.018","MEAN_ELEMENT_THEORY":"SGP4","CENTER_NAME":"EARTH","OBJECT_TYPE":"PAYLOAD","MEAN_MOTION_DDOT":"0.0000000000000","INCLINATION":"53.0567","SITE":"AFETR","ELEMENT_SET_NO":"999","SEMIMAJOR_AXIS":"6925.320","REV_AT_EPOCH":"2946","OBJECT_NAME":"STARLINK-2189"},{"MEAN_MOTION_DOT":"-0.00000574","TIME_SYSTEM":"UTC","OBJECT_ID":"2021-017AZ","MEAN_ANOMALY":"227.8237","COUNTRY_CODE":"US","APOAPSIS":"548.076","ECCENTRICITY":"0.00012520","CLASSIFICATION_TYPE":"U","ARG_OF_PERICENTER":"132.2858","FILE":"3109348","RCS_SIZE":"LARGE","EPOCH":"2021-09-05T17:54:53.117568","PERIOD":"95.592","EPHEMERIS_TYPE":"0","TLE_LINE2":"2 47769  53.0464  20.5721 0001252 132.2858 227.8237 15.06401459 29976","GP_ID":"184166609","NORAD_CAT_ID":"47769","DECAY_DATE":null,"TLE_LINE1":"1 47769U 21017AZ  21248.74644812 -.00000574  00000-0 -19630-4 0  9998","CENTER_NAME":"EARTH","INCLINATION":"53.0464","OBJECT_TYPE":"PAYLOAD","MEAN_MOTION_DDOT":"0.0000000000000","SITE":"AFETR","REV_AT_EPOCH":"2997","OBJECT_NAME":"STARLINK-2192","ELEMENT_SET_NO":"999","SEMIMAJOR_AXIS":"6925.344","RA_OF_ASC_NODE":"20.5721","MEAN_MOTION":"15.06401459","REF_FRAME":"TEME","LAUNCH_DATE":"2021-03-04","PERIAPSIS":"546.342","BSTAR":"-0.00001963000000","MEAN_ELEMENT_THEORY":"SGP4"},{"OBJECT_TYPE":"PAYLOAD","MEAN_MOTION_DDOT":"0.0000000000000","INCLINATION":"53.0558","CENTER_NAME":"EARTH","ELEMENT_SET_NO":"999","SEMIMAJOR_AXIS":"6925.351","REV_AT_EPOCH":"2973","OBJECT_NAME":"STARLINK-2193","SITE":"AFETR","LAUNCH_DATE":"2021-03-04","REF_FRAME":"TEME","RA_OF_ASC_NODE":"35.8154","MEAN_MOTION":"15.06399176","MEAN_ELEMENT_THEORY":"SGP4","BSTAR":"0.00001622100000","PERIAPSIS":"546.236","MEAN_ANOMALY":"237.3304","OBJECT_ID":"2021-017BA","MEAN_MOTION_DOT":"-0.00000040","TIME_SYSTEM":"UTC","ARG_OF_PERICENTER":"122.7822","FILE":"3109348","ECCENTRICITY":"0.00014150","CLASSIFICATION_TYPE":"U","APOAPSIS":"548.196","COUNTRY_CODE":"US","EPHEMERIS_TYPE":"0","PERIOD":"95.592","RCS_SIZE":"LARGE","EPOCH":"2021-09-05T16:23:57.730848","TLE_LINE1":"1 47770U 21017BA  21248.68330707 -.00000040  00000-0  16221-4 0  9998","DECAY_DATE":null,"GP_ID":"184166856","TLE_LINE2":"2 47770  53.0558  35.8154 0001415 122.7822 237.3304 15.06399176 29734","NORAD_CAT_ID":"47770"},{"DECAY_DATE":null,"GP_ID":"184165107","TLE_LINE2":"2 47771  53.0565  35.7421 0001670 107.7870 252.3301 15.06403063 29744","NORAD_CAT_ID":"47771","TLE_LINE1":"1 47771U 21017BB  21248.69902071  .00000857  00000-0  76404-4 0  9993","RCS_SIZE":"LARGE","EPOCH":"2021-09-05T16:46:35.389344","EPHEMERIS_TYPE":"0","PERIOD":"95.592","APOAPSIS":"548.361","COUNTRY_CODE":"US","ARG_OF_PERICENTER":"107.7870","FILE":"3109348","ECCENTRICITY":"0.00016700","CLASSIFICATION_TYPE":"U","MEAN_MOTION_DOT":"0.00000857","TIME_SYSTEM":"UTC","MEAN_ANOMALY":"252.3301","OBJECT_ID":"2021-017BB","BSTAR":"0.00007640400000","PERIAPSIS":"546.048","MEAN_ELEMENT_THEORY":"SGP4","RA_OF_ASC_NODE":"35.7421","MEAN_MOTION":"15.06403063","LAUNCH_DATE":"2021-03-04","REF_FRAME":"TEME","SITE":"AFETR","SEMIMAJOR_AXIS":"6925.339","ELEMENT_SET_NO":"999","REV_AT_EPOCH":"2974","OBJECT_NAME":"STARLINK-2194","CENTER_NAME":"EARTH","OBJECT_TYPE":"PAYLOAD","MEAN_MOTION_DDOT":"0.0000000000000","INCLINATION":"53.0565"},{"PERIAPSIS":"546.310","BSTAR":"-0.00001835200000","MEAN_ELEMENT_THEORY":"SGP4","MEAN_MOTION":"15.06405011","RA_OF_ASC_NODE":"50.4964","REF_FRAME":"TEME","LAUNCH_DATE":"2021-03-04","SITE":"AFETR","REV_AT_EPOCH":"2951","OBJECT_NAME":"STARLINK-2195","ELEMENT_SET_NO":"999","SEMIMAJOR_AXIS":"6925.333","CENTER_NAME":"EARTH","INCLINATION":"53.0555","OBJECT_TYPE":"PAYLOAD","MEAN_MOTION_DDOT":"0.0000000000000","TLE_LINE2":"2 47772  53.0555  50.4964 0001282 126.3010 233.8098 15.06405011 29519","GP_ID":"184165357","NORAD_CAT_ID":"47772","DECAY_DATE":null,"TLE_LINE1":"1 47772U 21017BC  21248.75474284 -.00000555  00000-0 -18352-4 0  9996","RCS_SIZE":"LARGE","EPOCH":"2021-09-05T18:06:49.781376","PERIOD":"95.592","EPHEMERIS_TYPE":"0","COUNTRY_CODE":"US","APOAPSIS":"548.086","ECCENTRICITY":"0.00012820","CLASSIFICATION_TYPE":"U","ARG_OF_PERICENTER":"126.3010","FILE":"3109348","MEAN_MOTION_DOT":"-0.00000555","TIME_SYSTEM":"UTC","OBJECT_ID":"2021-017BC","MEAN_ANOMALY":"233.8098"},{"GP_ID":"184166109","TLE_LINE2":"2 47773  53.0554  50.5173 0001926  88.1261 271.9949 15.06396708 29509","NORAD_CAT_ID":"47773","DECAY_DATE":null,"TLE_LINE1":"1 47773U 21017BD  21248.75106479 -.00000647  00000-0 -24551-4 0  9995","EPOCH":"2021-09-05T18:01:31.997856","RCS_SIZE":"LARGE","PERIOD":"95.592","EPHEMERIS_TYPE":"0","COUNTRY_CODE":"US","APOAPSIS":"548.557","CLASSIFICATION_TYPE":"U","ECCENTRICITY":"0.00019260","FILE":"3109348","ARG_OF_PERICENTER":"88.1261","TIME_SYSTEM":"UTC","MEAN_MOTION_DOT":"-0.00000647","OBJECT_ID":"2021-017BD","MEAN_ANOMALY":"271.9949","PERIAPSIS":"545.890","BSTAR":"-0.00002455100000","MEAN_ELEMENT_THEORY":"SGP4","MEAN_MOTION":"15.06396708","RA_OF_ASC_NODE":"50.5173","REF_FRAME":"TEME","LAUNCH_DATE":"2021-03-04","SITE":"AFETR","OBJECT_NAME":"STARLINK-2196","REV_AT_EPOCH":"2950","ELEMENT_SET_NO":"999","SEMIMAJOR_AXIS":"6925.359","CENTER_NAME":"EARTH","INCLINATION":"53.0554","MEAN_MOTION_DDOT":"0.0000000000000","OBJECT_TYPE":"PAYLOAD"},{"SITE":"AFETR","ELEMENT_SET_NO":"999","SEMIMAJOR_AXIS":"6925.361","REV_AT_EPOCH":"2951","OBJECT_NAME":"STARLINK-2197","CENTER_NAME":"EARTH","OBJECT_TYPE":"PAYLOAD","MEAN_MOTION_DDOT":"0.0000000000000","INCLINATION":"53.0557","BSTAR":"-0.00001491500000","PERIAPSIS":"545.723","MEAN_ELEMENT_THEORY":"SGP4","RA_OF_ASC_NODE":"50.5300","MEAN_MOTION":"15.06395902","LAUNCH_DATE":"2021-03-04","REF_FRAME":"TEME","APOAPSIS":"548.730","COUNTRY_CODE":"US","ARG_OF_PERICENTER":"91.8953","FILE":"3109348","ECCENTRICITY":"0.00021710","CLASSIFICATION_TYPE":"U","MEAN_MOTION_DOT":"-0.00000504","TIME_SYSTEM":"UTC","MEAN_ANOMALY":"268.2284","OBJECT_ID":"2021-017BE","DECAY_DATE":null,"TLE_LINE2":"2 47774  53.0557  50.5300 0002171  91.8953 268.2284 15.06395902 29514","GP_ID":"184166356","NORAD_CAT_ID":"47774","TLE_LINE1":"1 47774U 21017BE  21248.74738529 -.00000504  00000-0 -14915-4 0  9997","RCS_SIZE":"LARGE","EPOCH":"2021-09-05T17:56:14.089056","EPHEMERIS_TYPE":"0","PERIOD":"95.592"}];
